[{"OBJECT_NAME":"HST","OBJECT_ID":"1990-037B","EPOCH":"2026-03-09T03:50:04.164288","MEAN_MOTION":15.29473555,"ECCENTRICITY":0.00018372,"INCLINATION":28.4717,"RA_OF_ASC_NODE":43.6133,"ARG_OF_PERICENTER":120.9992,"MEAN_ANOMALY":239.0785,"EPHEMERIS_TYPE":0,"CLASSIFICATION_TYPE":"U","NORAD_CAT_ID":20580,"ELEMENT_SET_NO":999,"REV_AT_EPOCH":77323,"BSTAR":0.0003002261,"MEAN_MOTION_DOT":9.063e-5,"MEAN_MOTION_DDOT":0},{"OBJECT_NAME":"OBJECT C","OBJECT_ID":"2024-092C","EPOCH":"2026-03-09T23:10:26.961312","MEAN_MOTION":15.27308901,"ECCENTRICITY":0.00097974,"INCLINATION":97.6475,"RA_OF_ASC_NODE":197.1606,"ARG_OF_PERICENTER":169.1353,"MEAN_ANOMALY":191.0098,"EPHEMERIS_TYPE":0,"CLASSIFICATION_TYPE":"U","NORAD_CAT_ID":59775,"ELEMENT_SET_NO":999,"REV_AT_EPOCH":10042,"BSTAR":0.00057925748,"MEAN_MOTION_DOT":0.00015454,"MEAN_MOTION_DDOT":0}]
